{"fetched_at":"2026-04-01T16:59:04Z","count":11445,"tles":[{"name":"STARLINK-36245","line1":"1 68328U 26059H   26090.66668981  .00035370  00000+0  18213-3 0  9991","line2":"2 68328  53.1595 252.6813 0001467  85.1064 157.7005 15.80858400  2574","category":"Starlink"}]}